[{"OBJECT_NAME":"OBJECT B","OBJECT_ID":"2022-023B","EPOCH":"2026-03-09T22:47:53.401632","MEAN_MOTION":15.18262382,"ECCENTRICITY":0.00937159,"INCLINATION":63.476,"RA_OF_ASC_NODE":246.6999,"ARG_OF_PERICENTER":346.6129,"MEAN_ANOMALY":13.2499,"EPHEMERIS_TYPE":0,"CLASSIFICATION_TYPE":"U","NORAD_CAT_ID":51947,"ELEMENT_SET_NO":999,"REV_AT_EPOCH":22265,"BSTAR":0.00086643699,"MEAN_MOTION_DOT":0.00019848,"MEAN_MOTION_DDOT":0},{"OBJECT_NAME":"STARLINK-34484","OBJECT_ID":"2025-126Y","EPOCH":"2026-03-09T22:40:13.039968","MEAN_MOTION":14.98340581,"ECCENTRICITY":0.00022443,"INCLINATION":70.0047,"RA_OF_ASC_NODE":33.6675,"ARG_OF_PERICENTER":243.5816,"MEAN_ANOMALY":116.5113,"EPHEMERIS_TYPE":0,"CLASSIFICATION_TYPE":"U","NORAD_CAT_ID":64366,"ELEMENT_SET_NO":999,"REV_AT_EPOCH":4193,"BSTAR":0.00057375299,"MEAN_MOTION_DOT":6.761e-5,"MEAN_MOTION_DDOT":0}]
